{"type": "FeatureCollection", "features": [ {"type": "Feature", "properties": {"norad_id": 66579, "name": "STARLINK-35868", "group": "last-30-days", "lat": 35.2643792022257, "lon": -95.06360486641282, "alt_km": 410.82021125221945, "timestamp": "2025-12-10T11:33:52.172481+00:00", "meta": {"OBJECT_NAME": "STARLINK-35868", "OBJECT_ID": "2025-268Y", "EPOCH": "2025-12-10T04:00:01.998720", "MEAN_MOTION": 15.5063126, "ECCENTRICITY": 0.0002015, "INCLINATION": 43.0005, "RA_OF_ASC_NODE": 136.1395, "ARG_OF_PERICENTER": 268.1151, "MEAN_ANOMALY": 252.6143, "EPHEMERIS_TYPE": 0, "CLASSIFICATION_TYPE": "U", "NORAD_CAT_ID": 66579, "ELEMENT_SET_NO": 999, "REV_AT_EPOCH": 425, "BSTAR": -0.0034863, "MEAN_MOTION_DOT": -0.00200113, "MEAN_MOTION_DDOT": 0}, "tle": {"line1": "1 66579U 25268Y   25344.16668980 -.00200113  00000+0 -34863-2 0  9992", "line2": "2 66579  43.0005 136.1395 0002015 268.1151 252.6143 15.50631260  4250"}}, "geometry": {"type": "Point", "coordinates": [-95.06360486641282, 35.2643792022257]}}, {"type": "Feature", "properties": {"norad_id": 66580, "name": "STARLINK-35872", "group": "last-30-days", "lat": 34.404805907499686, "lon": -93.00719928700482, "alt_km": 410.8159380267616, "timestamp": "2025-12-10T11:33:52.172493+00:00", "meta": {"OBJECT_NAME": "STARLINK-35872", "OBJECT_ID": "2025-268Z", "EPOCH": "2025-12-10T04:00:01.998720", "MEAN_MOTION": 15.50612114, "ECCENTRICITY": 0.0001907, "INCLINATION": 43.0008, "RA_OF_ASC_NODE": 136.1357, "ARG_OF_PERICENTER": 269.7201, "MEAN_ANOMALY": 252.9008, "EPHEMERIS_TYPE": 0, "CLASSIFICATION_TYPE": "U", "NORAD_CAT_ID": 66580, "ELEMENT_SET_NO": 999, "REV_AT_EPOCH": 425, "BSTAR": -0.0023311, "MEAN_MOTION_DOT": -0.0013493, "MEAN_MOTION_DDOT": 0}, "tle": {"line1": "1 66580U 25268Z   25344.16668980 -.00134930  00000+0 -23311-2 0  9993", "line2": "2 66580  43.0008 136.1357 0001907 269.7201 252.9008 15.50612114  4255"}}, "geometry": {"type": "Point", "coordinates": [-93.00719928700482, 34.404805907499686]}}, {"type": "Feature", "properties": {"norad_id": 66581, "name": "STARLINK-35744", "group": "last-30-days", "lat": 33.461330844411656, "lon": -90.8874000346473, "alt_km": 410.8861465347172, "timestamp": "2025-12-10T11:33:52.172503+00:00", "meta": {"OBJECT_NAME": "STARLINK-35744", "OBJECT_ID": "2025-268AA", "EPOCH": "2025-12-10T04:00:01.998720", "MEAN_MOTION": 15.50785989, "ECCENTRICITY": 0.0001709, "INCLINATION": 43.0005, "RA_OF_ASC_NODE": 136.1298, "ARG_OF_PERICENTER": 271.7665, "MEAN_ANOMALY": 252.7528, "EPHEMERIS_TYPE": 0, "CLASSIFICATION_TYPE": "U", "NORAD_CAT_ID": 66581, "ELEMENT_SET_NO": 999, "REV_AT_EPOCH": 420, "BSTAR": -0.0070317, "MEAN_MOTION_DOT": -0.00395629, "MEAN_MOTION_DDOT": 0}, "tle": {"line1": "1 66581U 25268AA  25344.16668980 -.00395629  00000+0 -70317-2 0  9996", "line2": "2 66581  43.0005 136.1298 0001709 271.7665 252.7528 15.50785989  4205"}}, "geometry": {"type": "Point", "coordinates": [-90.8874000346473, 33.461330844411656]}}, {"type": "Feature", "properties": {"norad_id": 66582, "name": "STARLINK-35746", "group": "last-30-days", "lat": 32.56178576956107, "lon": -88.97641463481098, "alt_km": 411.04544781492496, "timestamp": "2025-12-10T11:33:52.172512+00:00", "meta": {"OBJECT_NAME": "STARLINK-35746", "OBJECT_ID": "2025-268AB", "EPOCH": "2025-12-10T04:00:01.998720", "MEAN_MOTION": 15.50652987, "ECCENTRICITY": 0.0001896, "INCLINATION": 43.0006, "RA_OF_ASC_NODE": 136.1249, "ARG_OF_PERICENTER": 271.7822, "MEAN_ANOMALY": 254.6444, "EPHEMERIS_TYPE": 0, "CLASSIFICATION_TYPE": "U", "NORAD_CAT_ID": 66582, "ELEMENT_SET_NO": 999, "REV_AT_EPOCH": 425, "BSTAR": -0.003034, "MEAN_MOTION_DOT": -0.00174883, "MEAN_MOTION_DDOT": 0}, "tle": {"line1": "1 66582U 25268AB  25344.16668980 -.00174883  00000+0 -30340-2 0  9996", "line2": "2 66582  43.0006 136.1249 0001896 271.7822 254.6444 15.50652987  4259"}}, "geometry": {"type": "Point", "coordinates": [-88.97641463481098, 32.56178576956107]}}, {"type": "Feature", "properties": {"norad_id": 66583, "name": "STARLINK-35941", "group": "last-30-days", "lat": 31.59173212307643, "lon": -87.0216637884634, "alt_km": 411.18805512720246, "timestamp": "2025-12-10T11:33:52.172522+00:00", "meta": {"OBJECT_NAME": "STARLINK-35941", "OBJECT_ID": "2025-268AC", "EPOCH": "2025-12-10T04:00:01.998720", "MEAN_MOTION": 15.50659868, "ECCENTRICITY": 0.0001886, "INCLINATION": 43.0006, "RA_OF_ASC_NODE": 136.1199, "ARG_OF_PERICENTER": 272.2728, "MEAN_ANOMALY": 256.0728, "EPHEMERIS_TYPE": 0, "CLASSIFICATION_TYPE": "U", "NORAD_CAT_ID": 66583, "ELEMENT_SET_NO": 999, "REV_AT_EPOCH": 425, "BSTAR": -0.003297, "MEAN_MOTION_DOT": -0.00189705, "MEAN_MOTION_DDOT": 0}, "tle": {"line1": "1 66583U 25268AC  25344.16668980 -.00189705  00000+0 -32970-2 0  9997", "line2": "2 66583  43.0006 136.1199 0001886 272.2728 256.0728 15.50659868  4250"}}, "geometry": {"type": "Point", "coordinates": [-87.0216637884634, 31.59173212307643]}}, {"type": "Feature", "properties": {"norad_id": 66584, "name": "STARLINK-35939", "group": "last-30-days", "lat": 30.59585779047505, "lon": -85.11302628351702, "alt_km": 411.35202179853513, "timestamp": "2025-12-10T11:33:52.172532+00:00", "meta": {"OBJECT_NAME": "STARLINK-35939", "OBJECT_ID": "2025-268AD", "EPOCH": "2025-12-10T04:00:01.998720", "MEAN_MOTION": 15.50607904, "ECCENTRICITY": 0.0001897, "INCLINATION": 43.0007, "RA_OF_ASC_NODE": 136.116, "ARG_OF_PERICENTER": 270.0886, "MEAN_ANOMALY": 260.2138, "EPHEMERIS_TYPE": 0, "CLASSIFICATION_TYPE": "U", "NORAD_CAT_ID": 66584, "ELEMENT_SET_NO": 999, "REV_AT_EPOCH": 425, "BSTAR": -0.0024402, "MEAN_MOTION_DOT": -0.00141101, "MEAN_MOTION_DDOT": 0}, "tle": {"line1": "1 66584U 25268AD  25344.16668980 -.00141101  00000+0 -24402-2 0  9997", "line2": "2 66584  43.0007 136.1160 0001897 270.0886 260.2138 15.50607904  4259"}}, "geometry": {"type": "Point", "coordinates": [-85.11302628351702, 30.59585779047505]}}, {"type": "Feature", "properties": {"norad_id": 66585, "name": "STARLINK-35963", "group": "last-30-days", "lat": 29.576555402672295, "lon": -83.2517938833015, "alt_km": 411.41173823327426, "timestamp": "2025-12-10T11:33:52.172542+00:00", "meta": {"OBJECT_NAME": "STARLINK-35963", "OBJECT_ID": "2025-268AE", "EPOCH": "2025-12-10T04:00:01.998720", "MEAN_MOTION": 15.50602648, "ECCENTRICITY": 0.0001711, "INCLINATION": 43.0007, "RA_OF_ASC_NODE": 136.1115, "ARG_OF_PERICENTER": 274.8024, "MEAN_ANOMALY": 257.4001, "EPHEMERIS_TYPE": 0, "CLASSIFICATION_TYPE": "U", "NORAD_CAT_ID": 66585, "ELEMENT_SET_NO": 999, "REV_AT_EPOCH": 425, "BSTAR": -0.001925, "MEAN_MOTION_DOT": -0.00111769, "MEAN_MOTION_DDOT": 0}, "tle": {"line1": "1 66585U 25268AE  25344.16668980 -.00111769  00000+0 -19250-2 0  9990", "line2": "2 66585  43.0007 136.1115 0001711 274.8024 257.4001 15.50602648  4258"}}, "geometry": {"type": "Point", "coordinates": [-83.2517938833015, 29.576555402672295]}}, {"type": "Feature", "properties": {"norad_id": 66586, "name": "TJS-21", "group": "last-30-days", "lat": 62.841081746717244, "lon": -96.74030481997309, "alt_km": 37880.15058028327, "timestamp": "2025-12-10T11:33:52.172554+00:00", "meta": {"OBJECT_NAME": "TJS-21", "OBJECT_ID": "2025-269A", "EPOCH": "2025-12-09T17:35:27.978144", "MEAN_MOTION": 2.00565752, "ECCENTRICITY": 0.6805657, "INCLINATION": 63.268, "RA_OF_ASC_NODE": 162.6671, "ARG_OF_PERICENTER": 269.7843, "MEAN_ANOMALY": 18.6559, "EPHEMERIS_TYPE": 0, "CLASSIFICATION_TYPE": "U", "NORAD_CAT_ID": 66586, "ELEMENT_SET_NO": 999, "REV_AT_EPOCH": 37, "BSTAR": -0.041607, "MEAN_MOTION_DOT": 1.08e-05, "MEAN_MOTION_DDOT": 0}, "tle": {"line1": "1 66586U 25269A   25343.73296271  .00001080  00000+0 -41607-1 0  9997", "line2": "2 66586  63.2680 162.6671 6805657 269.7843  18.6559  2.00565752   379"}}, "geometry": {"type": "Point", "coordinates": [-96.74030481997309, 62.841081746717244]}}, {"type": "Feature", "properties": {"norad_id": 66587, "name": "CZ-3B R/B", "group": "last-30-days", "lat": 31.929197821803065, "lon": -159.92137506649243, "alt_km": 39093.46113057552, "timestamp": "2025-12-10T11:33:52.172569+00:00", "meta": {"OBJECT_NAME": "CZ-3B R/B", "OBJECT_ID": "2025-269B", "EPOCH": "2025-12-08T20:16:41.011104", "MEAN_MOTION": 2.02868797, "ECCENTRICITY": 0.7519772, "INCLINATION": 51.3469, "RA_OF_ASC_NODE": 170.5472, "ARG_OF_PERICENTER": 228.0184, "MEAN_ANOMALY": 37.9661, "EPHEMERIS_TYPE": 0, "CLASSIFICATION_TYPE": "U", "NORAD_CAT_ID": 66587, "ELEMENT_SET_NO": 999, "REV_AT_EPOCH": 37, "BSTAR": 0.0012608, "MEAN_MOTION_DOT": 0.00050405, "MEAN_MOTION_DDOT": 4.221e-07}, "tle": {"line1": "1 66587U 25269B   25342.84491911  .00050405  42210-6  12608-2 0  9997", "line2": "2 66587  51.3469 170.5472 7519772 228.0184  37.9661  2.02868797   372"}}, "geometry": {"type": "Point", "coordinates": [-159.92137506649243, 31.929197821803065]}}, {"type": "Feature", "properties": {"norad_id": 66588, "name": "STARLINK-36076", "group": "last-30-days", "lat": 5.504803913704293, "lon": -148.12049614961043, "alt_km": 411.4478962400026, "timestamp": "2025-12-10T11:33:52.172585+00:00", "meta": {"OBJECT_NAME": "STARLINK-36076", "OBJECT_ID": "2025-270A", "EPOCH": "2025-12-10T04:00:01.998720", "MEAN_MOTION": 15.52901539, "ECCENTRICITY": 0.0001672, "INCLINATION": 42.9998, "RA_OF_ASC_NODE": 207.7917, "ARG_OF_PERICENTER": 265.0805, "MEAN_ANOMALY": 139.7969, "EPHEMERIS_TYPE": 0, "CLASSIFICATION_TYPE": "U", "NORAD_CAT_ID": 66588, "ELEMENT_SET_NO": 999, "REV_AT_EPOCH": 398, "BSTAR": -0.033295, "MEAN_MOTION_DOT": -0.01875149, "MEAN_MOTION_DDOT": 0}, "tle": {"line1": "1 66588U 25270A   25344.16668980 -.01875149  00000+0 -33295-1 0  9990", "line2": "2 66588  42.9998 207.7917 0001672 265.0805 139.7969 15.52901539  3985"}}, "geometry": {"type": "Point", "coordinates": [-148.12049614961043, 5.504803913704293]}}]}